$$SOE
2460728.500000000, A.D. 2025-Feb-22 00:00:00.0000, -3.225343977699534E+08, -3.076891182800931E+08, 1.014393722640541E+08,
2460735.500000000, A.D. 2025-Mar-01 00:00:00.0000, -3.151875561815155E+08, -3.150056497807916E+08, 1.001642970858240E+08,
2460742.500000000, A.D. 2025-Mar-08 00:00:00.0000, -3.076801192051067E+08, -3.221617444589620E+08, 9.883818640972769E+07,
2460749.500000000, A.D. 2025-Mar-15 00:00:00.0000, -3.000154781052461E+08, -3.291533043030266E+08, 9.746157754216883E+07,
2460756.500000000, A.D. 2025-Mar-22 00:00:00.0000, -2.921971316739484E+08, -3.359762987995912E+08, 9.603503918833357E+07,
2460763.500000000, A.D. 2025-Mar-29 00:00:00.0000, -2.842286858549131E+08, -3.426267701875570E+08, 9.455917133131492E+07,
2460770.500000000, A.D. 2025-Apr-05 00:00:00.0000, -2.761138515548632E+08, -3.491008378258535E+08, 9.303460500033104E+07,
2460777.500000000, A.D. 2025-Apr-12 00:00:00.0000, -2.678564425678278E+08, -3.553947015648366E+08, 9.146200211242123E+07,
2460784.500000000, A.D. 2025-Apr-19 00:00:00.0000, -2.594603737988635E+08, -3.615046449957836E+08, 8.984205533148646E+07,
2460791.500000000, A.D. 2025-Apr-26 00:00:00.0000, -2.509296595144290E+08, -3.674270387742891E+08, 8.817548790160149E+07,
2460798.500000000, A.D. 2025-May-03 00:00:00.0000, -2.422684115042784E+08, -3.731583439912964E+08, 8.646305344417042E+07,
2460805.500000000, A.D. 2025-May-10 00:00:00.0000, -2.334808371247163E+08, -3.786951155765544E+08, 8.470553571569924E+07,
2460812.500000000, A.D. 2025-May-17 00:00:00.0000, -2.245712371852210E+08, -3.840340057698444E+08, 8.290374831862670E+07,
2460819.500000000, A.D. 2025-May-24 00:00:00.0000, -2.155440035041503E+08, -3.891717677095386E+08, 8.105853434454980E+07,
2460826.500000000, A.D. 2025-May-31 00:00:00.0000, -2.064036157165512E+08, -3.941052588227548E+08, 7.917076593708959E+07,
2460833.500000000, A.D. 2025-Jun-07 00:00:00.0000, -1.971546377365369E+08, -3.988314428068212E+08, 7.724134390980549E+07,
2460840.500000000, A.D. 2025-Jun-14 00:00:00.0000, -1.878017162400178E+08, -4.033473908624434E+08, 7.527119758142243E+07,
2460847.500000000, A.D. 2025-Jun-21 00:00:00.0000, -1.783495799518941E+08, -4.076502854440398E+08, 7.326128444937018E+07,
2460854.500000000, A.D. 2025-Jun-28 00:00:00.0000, -1.688030366114016E+08, -4.117374247579193E+08, 7.121258955943488E+07,
2460861.500000000, A.D. 2025-Jul-05 00:00:00.0000, -1.591669691351968E+08, -4.156062258466468E+08, 6.912612488747233E+07,
2460868.500000000, A.D. 2025-Jul-12 00:00:00.0000, -1.494463321721102E+08, -4.192542270587353E+08, 6.700292877691595E+07,
2460875.500000000, A.D. 2025-Jul-19 00:00:00.0000, -1.396461488628398E+08, -4.226790904721957E+08, 6.484406536782025E+07,
2460882.500000000, A.D. 2025-Jul-26 00:00:00.0000, -1.297715075973985E+08, -4.258786043220799E+08, 6.265062399365316E+07,
2460889.500000000, A.D. 2025-Aug-02 00:00:00.0000, -1.198275587077186E+08, -4.288506854044349E+08, 6.042371854187560E+07,
2460896.500000000, A.D. 2025-Aug-09 00:00:00.0000, -1.098195110752324E+08, -4.315933814659398E+08, 5.816448677554961E+07,
2460903.500000000, A.D. 2025-Aug-16 00:00:00.0000, -9.975262858035882E+07, -4.341048736373076E+08, 5.587408960457714E+07,
2460910.500000000, A.D. 2025-Aug-23 00:00:00.0000, -8.963222610562034E+07, -4.363834788888063E+08, 5.355371028199767E+07,
2460917.500000000, A.D. 2025-Aug-30 00:00:00.0000, -7.946366476812473E+07, -4.384276517886652E+08, 5.120455355448101E+07,
2460924.500000000, A.D. 2025-Sep-06 00:00:00.0000, -6.925234780441873E+07, -4.402359845585675E+08, 4.882784497974111E+07,
2460931.500000000, A.D. 2025-Sep-13 00:00:00.0000, -5.900371878297643E+07, -4.418072079031848E+08, 4.642483036199468E+07,
2460938.500000000, A.D. 2025-Sep-20 00:00:00.0000, -4.872325887532225E+07, -4.431401942535471E+08, 4.399677487190877E+07,
2460945.500000000, A.D. 2025-Sep-27 00:00:00.0000, -3.841648213238777E+07, -4.442339603096040E+08, 4.154496200972624E+07,
2460952.500000000, A.D. 2025-Oct-04 00:00:00.0000, -2.808893078880458E+07, -4.450876683394451E+08, 3.907069264210191E+07,
2460959.500000000, A.D. 2025-Oct-11 00:00:00.0000, -1.774617097496018E+07, -4.457006271743857E+08, 3.657528407117963E+07,
2460966.500000000, A.D. 2025-Oct-18 00:00:00.0000, -7.393788559409322E+06, -4.460722931704729E+08, 3.406006908869493E+07,
2460973.500000000, A.D. 2025-Oct-25 00:00:00.0000, 2.962615011633205E+06, -4.462022711215746E+08, 3.152639500435585E+07,
2460980.500000000, A.D. 2025-Nov-01 00:00:00.0000, 1.331742691109745E+07, -4.460903151050653E+08, 2.897562264729580E+07,
2460987.500000000, A.D. 2025-Nov-08 00:00:00.0000, 2.366502719274504E+07, -4.457363292888594E+08, 2.640912533613601E+07,
2460994.500000000, A.D. 2025-Nov-15 00:00:00.0000, 3.399979325930654E+07, -4.451403687566575E+08, 2.382828780075520E+07,
2461001.500000000, A.D. 2025-Nov-22 00:00:00.0000, 4.431610493295120E+07, -4.443026401302135E+08, 2.123450503833303E+07,
2461008.500000000, A.D. 2025-Nov-29 00:00:00.0000, 5.460834996763421E+07, -4.432235008527193E+08, 1.862918121195951E+07,
2461015.500000000, A.D. 2025-Dec-06 00:00:00.0000, 6.487092771843468E+07, -4.419034572679239E+08, 1.601372879095238E+07,
2461022.500000000, A.D. 2025-Dec-13 00:00:00.0000, 7.509825139459221E+07, -4.403431648635501E+08, 1.338956761896953E+07,
2461029.500000000, A.D. 2025-Dec-20 00:00:00.0000, 8.528475238295358E+07, -4.385434296556784E+08, 1.075812367465746E+07,
2461036.500000000, A.D. 2025-Dec-27 00:00:00.0000, 9.542488556066397E+07, -4.365052081238613E+08, 8.120827836850524E+06,
2461043.500000000, A.D. 2026-Jan-03 00:00:00.0000, 1.055131341295948E+08, -4.342296063126385E+08, 5.479114739583075E+06,
2461050.500000000, A.D. 2026-Jan-10 00:00:00.0000, 1.155440140740564E+08, -4.317178787771231E+08, 2.834421653044581E+06,
2461057.500000000, A.D. 2026-Jan-17 00:00:00.0000, 1.255120784670379E+08, -4.289714274623836E+08, 1.881873633945584E+05,
2461064.500000000, A.D. 2026-Jan-24 00:00:00.0000, 1.354119216969184E+08, -4.259918004926406E+08, -2.458148952017576E+06,
2461071.500000000, A.D. 2026-Jan-31 00:00:00.0000, 1.452381836332194E+08, -4.227806908780048E+08, -5.103148854831845E+06,
2461078.500000000, A.D. 2026-Feb-07 00:00:00.0000, 1.549855537883767E+08, -4.193399351986200E+08, -7.745375789550394E+06,
2461085.500000000, A.D. 2026-Feb-14 00:00:00.0000, 1.646487757234441E+08, -4.156715122858766E+08, -1.038339626351377E+07,
2461092.500000000, A.D. 2026-Feb-21 00:00:00.0000, 1.742226520790221E+08, -4.117775413287717E+08, -1.301578104939872E+07,
2461099.500000000, A.D. 2026-Feb-28 00:00:00.0000, 1.837020491393053E+08, -4.076602782564986E+08, -1.564110621465135E+07,
2461106.500000000, A.D. 2026-Mar-07 00:00:00.0000, 1.930818988631256E+08, -4.033221123501209E+08, -1.825795394673425E+07,
2461113.500000000, A.D. 2026-Mar-14 00:00:00.0000, 2.023572011513124E+08, -3.987655654179236E+08, -2.086491361778346E+07,
2461120.500000000, A.D. 2026-Mar-21 00:00:00.0000, 2.115230281284561E+08, -3.939932906399007E+08, -2.346058301367813E+07,
2461127.500000000, A.D. 2026-Mar-28 00:00:00.0000, 2.205745284250310E+08, -3.890080700576517E+08, -2.604356945744041E+07,
2461134.500000000, A.D. 2026-Apr-04 00:00:00.0000, 2.295069308513336E+08, -3.838128116803392E+08, -2.861249084880501E+07,
2461141.500000000, A.D. 2026-Apr-11 00:00:00.0000, 2.383155477325548E+08, -3.784105465716931E+08, -3.116597667282635E+07,
2461148.500000000, A.D. 2026-Apr-18 00:00:00.0000, 2.469957780600011E+08, -3.728044259300396E+08, -3.370266899105191E+07,
2461155.500000000, A.D. 2026-Apr-25 00:00:00.0000, 2.555431105002223E+08, -3.669977181520559E+08, -3.622122341667472E+07,
2461162.500000000, A.D. 2026-May-02 00:00:00.0000, 2.639531262889030E+08, -3.609938059150369E+08, -3.872031007736404E+07,
2461169.500000000, A.D. 2026-May-09 00:00:00.0000, 2.722215021310120E+08, -3.547961833488298E+08, -4.119861458113880E+07,
2461176.500000000, A.D. 2026-May-16 00:00:00.0000, 2.803440134832256E+08, -3.484084531646283E+08, -4.365483900729915E+07,
2461183.500000000, A.D. 2026-May-23 00:00:00.0000, 2.883165382690825E+08, -3.418343227252305E+08, -4.608770284249866E+07,
2461190.500000000, A.D. 2026-May-30 00:00:00.0000, 2.961350589462397E+08, -3.350775987447602E+08, -4.849594364425839E+07,
2461197.500000000, A.D. 2026-Jun-06 00:00:00.0000, 3.037956626052520E+08, -3.281421838973762E+08, -5.087831766940428E+07,
2461204.500000000, A.D. 2026-Jun-13 00:00:00.0000, 3.112945427635193E+08, -3.210320751407554E+08, -5.323360078652492E+07,
2461211.500000000, A.D. 2026-Jun-20 00:00:00.0000, 3.186280023527299E+08, -3.137513608341702E+08, -5.556058938677047E+07,
2461218.500000000, A.D. 2026-Jun-27 00:00:00.0000, 3.257924562010224E+08, -3.063042169978963E+08, -5.785810116461390E+07,
2461225.500000000, A.D. 2026-Jul-04 00:00:00.0000, 3.327844330092097E+08, -2.986949034955235E+08, -6.012497583161381E+07,
2461232.500000000, A.D. 2026-Jul-11 00:00:00.0000, 3.396005770746741E+08, -2.909277602775706E+08, -6.236007579706016E+07,
2461239.500000000, A.D. 2026-Jul-18 00:00:00.0000, 3.462376498556011E+08, -2.830072036671830E+08, -6.456228682180446E+07,
2461246.500000000, A.D. 2026-Jul-25 00:00:00.0000, 3.526925313999792E+08, -2.749377226917191E+08, -6.673051864722548E+07,
2461253.500000000, A.D. 2026-Aug-01 00:00:00.0000, 3.589622216872170E+08, -2.667238755145426E+08, -6.886370560752910E+07,
2461260.500000000, A.D. 2026-Aug-08 00:00:00.0000, 3.650438420970773E+08, -2.583702860082437E+08, -7.096080724772933E+07,
2461267.500000000, A.D. 2026-Aug-15 00:00:00.0000, 3.709346374220365E+08, -2.498816400237991E+08, -7.302080894831382E+07,
2461274.500000000, A.D. 2026-Aug-22 00:00:00.0000, 3.766319776645846E+08, -2.412626801404265E+08, -7.504272238706331E+07,
2461281.500000000, A.D. 2026-Aug-29 00:00:00.0000, 3.821333573322325E+08, -2.325182002759337E+08, -7.702558574043752E+07,
2461288.500000000, A.D. 2026-Sep-05 00:00:00.0000, 3.874363943638033E+08, -2.236530430311558E+08, -7.896846405435361E+07,
$$EOE